ONEWEB-0153             
1 48044U 21025C   24064.86886571  .00000108  00000+0  26054-3 0  9993
2 48044  87.8962 126.3097 0001878 102.5504 257.5835 13.13469211144028
ONEWEB-0154             
1 48045U 21025D   24064.86569056  .00000212  00000+0  54424-3 0  9998
2 48045  87.8958 126.3249 0001935  99.5688 260.5660 13.13470025143984
ONEWEB-0116             
1 48046U 21025E   24064.60223501  .00001699  00000+0  46174-2 0  9995
2 48046  87.8961 126.3423 0002357  97.5073 262.6324 13.13460650144094
ONEWEB-0150             
1 48047U 21025F   24064.88155044 -.00000147  00000+0 -43714-3 0  9999
2 48047  87.8958 126.3122 0002076 100.8622 259.2740 13.13468453144029
ONEWEB-0107             
1 48048U 21025G   24064.88313807 -.00000135  00000+0 -40535-3 0  9998
2 48048  87.8954 126.3099 0001904 111.2757 248.8576 13.13468160144007
ONEWEB-0101             
1 48049U 21025H   24064.92281944  .00000500  00000+0  13336-2 0  9992
2 48049  87.8962 126.3122 0001811 100.6731 259.4602 13.13472051143983
ONEWEB-0113             
1 48050U 21025J   24064.67205951 -.00000283  00000+0 -81071-3 0  9992
2 48050  87.8961 126.3442 0002127  97.0853 263.0518 13.13468381144039
ONEWEB-0112             
1 48051U 21025K   24064.88789789 -.00000240  00000+0 -69144-3 0  9992
2 48051  87.8956 126.3069 0002070 102.6757 257.4604 13.13467942144071
